#aV2009 10  3  0  0   .00000000      96 DD+AD WGS84 FIT  NGA
## 1551 518400.00000000   900.00000000 55107  .0000000000000
+   32     1  2  3  4  5  6  7  8  9 10 11 12 13 14 15 16 17
+         18 19 20 21 22 23 24 25 26 27 28 29 30 31 32  0  0
+          0  0  0  0  0  0  0  0  0  0  0  0  0  0  0  0  0
+          0  0  0  0  0  0  0  0  0  0  0  0  0  0  0  0  0
+          0  0  0  0  0  0  0  0  0  0  0  0  0  0  0  0  0
++         0  0  0  0  0  0  0  0  0  0  0  0  0  0  0  0  0
++         0  0  0  0  0  0  0  0  0  0  0  0  0  0  0  0  0
++         0  0  0  0  0  0  0  0  0  0  0  0  0  0  0  0  0
++         0  0  0  0  0  0  0  0  0  0  0  0  0  0  0  0  0
++         0  0  0  0  0  0  0  0  0  0  0  0  0  0  0  0  0
%c cc cc ccc ccc cccc cccc cccc cccc ccccc ccccc ccccc ccccc
%c cc cc ccc ccc cccc cccc cccc cccc ccccc ccccc ccccc ccccc
%f  0.0000000  0.000000000  0.00000000000  0.000000000000000
%f  0.0000000  0.000000000  0.00000000000  0.000000000000000
%i    0    0    0    0      0      0      0      0         0
%i    0    0    0    0      0      0      0      0         0
/*      NGA, ST. LOUIS,MO.                                  
/*   EPHEMERIS COMPUTED FROM  3 DAYS OF DATA                
/* CCCCCCCCCCCCCCCCCCCCCCCCCCCCCCCCCCCCCCCCCCCCCCCCCCCCCCCCC
/* CCCCCCCCCCCCCCCCCCCCCCCCCCCCCCCCCCCCCCCCCCCCCCCCCCCCCCCCC
*  2009 10  3 21  0   .00000000                                                 
P  1 -19130.839301  16015.409589   8857.045580    -59.210101                    
V  1   4512.361715 -10820.654993  29077.675340      -.010770                    
P  2 -13317.655170 -23010.981234  -3390.542094    177.695479                    
V  2    999.155302  -5060.232295  30650.861002       .034136                    
P  3  19363.305640  11083.116118 -15005.460148    455.682285                    
V  3 -18403.956092   2625.791175 -21961.382395       .052396                    
P  4  -5941.337941 -24880.075319   6240.484377   -294.306793                    
V  4   6647.001389   6061.446950  30157.865930      -.175960                    
P  5 -10754.922279 -10962.881655 -21674.589729    -74.181219                    
V  5  16374.055553 -22100.856380   3123.600425       .095797                    
P  6  15767.305779  13253.135132 -16636.713382    248.424336                    
V  6 -21612.732708   1005.106861 -19380.598132       .050445                    
P  7  11192.875664 -11028.838949 -21408.905309     10.297779                    
V  7  11528.750777  24578.562188  -6786.925154      -.007168                    
P  8   3002.753245 -21154.851183 -15460.114750   -223.677086                    
V  8   8386.246542  17923.980066 -23459.794263      -.013197                    
P  9 -17269.255884  -8217.686394  17794.713188     80.993859                    
V  9  -9064.463995 -22143.289775 -18299.625574       .021239                    
P 10  -8975.018034 -13116.105778 -21392.787385    -24.999825                    
V 10  16888.378651 -20902.080044   6106.034946      -.009132                    
P 11  19847.881605   3241.712695  17281.587352    -22.543491                    
V 11  11364.378761  19641.823857 -16152.421186      -.017407                    
P 12 -18729.195354   4029.682332  18395.629431   -209.702771                    
V 12  12657.931301 -19587.745129  17348.791269       .055598                    
P 13  20251.783527  -6994.208445 -15833.412231    305.329117                    
V 13  19324.535949   4482.353031  22901.007665       .003486                    
P 14  -4222.788557  14165.219929  22193.359776    -42.488415                    
V 14 -27452.123987  -4304.001511  -2617.378116       .050992                    
P 15 -24192.480196  -7776.912041  -7828.119398   -319.665795                    
V 15  10173.960918  -1806.614045 -29464.461187      -.006373                    
P 16   3718.123020  17333.428318 -19651.889743      6.269851                    
V 16 -16262.237449  19171.939966  14039.439315      -.039694                    
P 17   3961.013975 -14833.728477  21734.813866     90.075949                    
V 17  27185.042351   3752.154891  -2596.812070       .031617                    
P 18 -17395.765229  19609.689152  -2457.918508     17.493608                    
V 18   -891.697087  -5063.958003 -31327.546252       .028686                    
P 19  24705.154745   8481.148566  -5518.437448      7.984410                    
V 19  -7367.762562   1291.364063 -30480.332843      -.017324                    
P 20  19576.822453  -7784.461912  16024.588759     70.820025                    
V 20  -9764.717842  18352.093878  20731.443963      -.008789                    
P 21  -9456.491502  14710.425979 -19532.665707    -12.933241                    
V 21 -11666.752590 -22969.299456 -12106.964578      -.022952                    
P 22  -9876.416194  23073.924807   8732.251304    189.576797                    
V 22  -9293.698127   6600.297453 -28576.307579      -.007978                    
P 23  26484.652046    543.275787  -3583.050281    387.922347                    
V 23   4183.067264   2733.244309  31325.609188      -.004277                    
P 24 -15895.340836    683.249618 -21113.267942    225.651672                    
V 24  -9053.437299 -25624.344308   6201.902421       .030110                    
P 25  14693.848540  -3754.303985 -21447.656454    618.111668                    
V 25  13272.116673  24695.335712   4880.192987       .141723                    
P 26 -13830.696740  10678.072066  19622.134622      9.289217                    
V 26 -25399.272885  -4961.575071 -14338.100827      -.012318                    
P 27 -18227.357357 -11570.530893  16178.356194     88.135416                    
V 27  -7544.861381 -17758.411807 -22120.428945       .032705                    
P 28  11663.222810 -22765.987083   6945.227482    -26.018940                    
V 28   7205.861682  -4921.120555 -30452.454252       .001378                    
P 29 -22246.175220   6174.840512 -12998.332634     62.934021                    
V 29 -16215.231194  -4538.386745  25453.942090       .031774                    
P 30 -18913.807543  15222.959862  10306.432563    181.961933                    
V 30   5209.844527 -12976.859619  27757.453559       .031137                    
P 31   7550.004364  24973.241029   4764.012597    -63.507923                    
V 31  -4567.521091  -4322.172649  31386.332806       .006055                    
P 32  17379.851353   1608.952654  20323.489424    184.768071                    
V 32 -15574.032594  19635.874736  12272.430992      -.072844                    
EOF
